[{"OBJECT_NAME":"STARLINK-6042","OBJECT_ID":"2023-078AT","EPOCH":"2026-03-09T22:26:13.300224","MEAN_MOTION":14.98333415,"ECCENTRICITY":0.00021339,"INCLINATION":69.9982,"RA_OF_ASC_NODE":273.9199,"ARG_OF_PERICENTER":272.1987,"MEAN_ANOMALY":87.8928,"EPHEMERIS_TYPE":0,"CLASSIFICATION_TYPE":"U","NORAD_CAT_ID":56808,"ELEMENT_SET_NO":999,"REV_AT_EPOCH":15445,"BSTAR":3.7160668e-5,"MEAN_MOTION_DOT":3.51e-6,"MEAN_MOTION_DDOT":0},{"OBJECT_NAME":"ATLAS 5 CENTAUR R\/B","OBJECT_ID":"2007-027B","EPOCH":"2026-03-09T15:46:13.058976","MEAN_MOTION":14.51560256,"ECCENTRICITY":0.05000955,"INCLINATION":63.3111,"RA_OF_ASC_NODE":178.9158,"ARG_OF_PERICENTER":42.233,"MEAN_ANOMALY":321.6153,"EPHEMERIS_TYPE":0,"CLASSIFICATION_TYPE":"U","NORAD_CAT_ID":31702,"ELEMENT_SET_NO":999,"REV_AT_EPOCH":9634,"BSTAR":0.00064832626,"MEAN_MOTION_DOT":0.0001437,"MEAN_MOTION_DDOT":0}]
